NORAD_CAT_ID,OBJECT_NAME,OBJECT_TYPE,EPOCH,MEAN_MOTION,ECCENTRICITY,INCLINATION,RA_OF_ASC_NODE,ARG_OF_PERICENTER,MEAN_ANOMALY,BSTAR,MEAN_MOTION_DOT,MEAN_MOTION_DDOT,TLE_LINE0,TLE_LINE1,TLE_LINE2,SEMIMAJOR_AXIS,PERIOD,APOGEE,PERIGEE,DECAYED
52121.0,STARLINK-3678,PAYLOAD,2023-10-16 08:07:12,15.08841642,0.0001504,53.2182,38.7283,88.9168,271.1997,0.00069781,0.00010836,0.0,0 STARLINK-3678,1 52121U 22029AK  23289.33834408  .00010836  00000-0  69781-3 0  9995,2 52121  53.2182  38.7283 0001504  88.9168 271.1997 15.08841642 88770,6917.875,95.437,540.781,538.7,0.0
52121.0,STARLINK-3678,PAYLOAD,2023-10-16 12:53:22,15.08846686,0.0001528,53.2183,37.8365,89.1905,270.9263,0.00071094,0.00011047,0.0,0 STARLINK-3678,1 52121U 22029AK  23289.53706313  .00011047  00000-0  71094-3 0  9995,2 52121  53.2183  37.8365 0001528  89.1905 270.9263 15.08846686 88800,6917.86,95.437,540.782,538.668,0.0
52121.0,STARLINK-3678,PAYLOAD,2023-10-17 11:08:45,15.08846896,0.0001532,53.2174,33.6733,90.358,269.7588,0.00028133,4.193e-05,0.0,0 STARLINK-3678,1 52121U 22029AK  23290.46442121  .00004193  00000-0  28133-3 0  9993,2 52121  53.2174  33.6733 0001532  90.3580 269.7588 15.08846896 88945,6917.859,95.437,540.784,538.664,0.0
52121.0,STARLINK-3678,PAYLOAD,2023-10-17 23:51:51,15.08844308,0.0001634,53.2178,31.2884,80.1908,279.9268,0.00012868,1.761e-05,0.0,0 STARLINK-3678,1 52121U 22029AK  23290.99434087  .00001761  00000-0  12868-3 0  9999,2 52121  53.2178  31.2884 0001634  80.1908 279.9268 15.08844308 89028,6917.867,95.437,540.863,538.602,0.0
52121.0,STARLINK-3678,PAYLOAD,2023-10-18 12:34:56,15.08844548,0.0001616,53.2176,28.9116,90.4113,269.7065,0.00013316,1.832e-05,0.0,0 STARLINK-3678,1 52121U 22029AK  23291.52426138  .00001832  00000-0  13316-3 0  9995,2 52121  53.2176  28.9116 0001616  90.4113 269.7065 15.08844548 89106,6917.866,95.437,540.849,538.614,0.0
52121.0,STARLINK-3678,PAYLOAD,2023-10-18 15:45:42,15.08847339,0.0001675,53.2175,28.3169,83.8319,276.2864,0.000195,2.817e-05,0.0,0 STARLINK-3678,1 52121U 22029AK  23291.65674013  .00002817  00000-0  19500-3 0  9991,2 52121  53.2175  28.3169 0001675  83.8319 276.2864 15.08847339 89129,6917.858,95.437,540.882,538.564,0.0
52121.0,STARLINK-3678,PAYLOAD,2023-10-19 12:25:42,15.08856289,0.000152,53.2161,24.4551,90.1018,270.0148,0.00031669,4.758e-05,0.0,0 STARLINK-3678,1 52121U 22029AK  23292.51785447  .00004758  00000-0  31669-3 0  9997,2 52121  53.2161  24.4551 0001520  90.1018 270.0148 15.08856289 89257,6917.831,95.437,540.747,538.644,0.0
52121.0,STARLINK-3678,PAYLOAD,2023-10-19 23:33:25,15.08843518,0.0001656,53.2189,22.3707,84.3563,275.7618,0.00014773,2.064e-05,0.0,0 STARLINK-3678,1 52121U 22029AK  23292.98153971  .00002064  00000-0  14773-3 0  9994,2 52121  53.2189  22.3707 0001656  84.3563 275.7618 15.08843518 89320,6917.87,95.437,540.88,538.589,0.0
52121.0,STARLINK-3678,PAYLOAD,2023-10-20 12:16:30,15.08834823,0.0001529,53.2182,19.9926,91.5252,268.5915,-8.8797e-05,-1.701e-05,0.0,0 STARLINK-3678,1 52121U 22029AK  23293.51146333 -.00001701  00000-0 -88797-4 0  9995,2 52121  53.2182  19.9926 0001529  91.5252 268.5915 15.08834823 89400,6917.896,95.438,540.819,538.703,0.0
52121.0,STARLINK-3678,PAYLOAD,2023-10-21 12:07:17,15.08848223,0.0001342,53.2179,15.5324,93.4759,266.6387,0.0003068,4.599e-05,0.0,0 STARLINK-3678,1 52121U 22029AK  23294.50506177  .00004599  00000-0  30680-3 0  9994,2 52121  53.2179  15.5324 0001342  93.4759 266.6387 15.08848223 89553,6917.855,95.437,540.649,538.792,0.0
52121.0,STARLINK-3678,PAYLOAD,2023-10-22 11:58:04,15.08839185,0.0001272,53.2186,11.0702,90.2938,269.82,0.00014853,2.077e-05,0.0,0 STARLINK-3678,1 52121U 22029AK  23295.49866746  .00002077  00000-0  14853-3 0  9997,2 52121  53.2186  11.0702 0001272  90.2938 269.8200 15.08839185 89701,6917.883,95.438,540.628,538.868,0.0
52121.0,STARLINK-3678,PAYLOAD,2023-10-23 21:21:10,15.08840413,0.0001259,53.2182,4.8283,85.1602,274.9534,0.00012523,1.706e-05,0.0,0 STARLINK-3678,1 52121U 22029AK  23296.88971019  .00001706  00000-0  12523-3 0  9991,2 52121  53.2182   4.8283 0001259  85.1602 274.9534 15.08840413 89913,6917.879,95.438,540.615,538.873,0.0
52121.0,STARLINK-3678,PAYLOAD,2023-10-24 05:18:07,15.08835074,0.0001345,53.2184,3.3431,96.2522,263.8623,0.00012528,1.706e-05,0.0,0 STARLINK-3678,1 52121U 22029AK  23297.22091511  .00001706  00000-0  12528-3 0  9995,2 52121  53.2184   3.3431 0001345  96.2522 263.8623 15.08835074 89962,6917.895,95.438,540.691,538.83,0.0
52121.0,STARLINK-3678,PAYLOAD,2023-10-24 11:39:39,15.08841721,0.0001349,53.2187,2.1537,92.743,267.3717,0.00020282,2.942e-05,0.0,0 STARLINK-3678,1 52121U 22029AK  23297.48587241  .00002942  00000-0  20282-3 0  9992,2 52121  53.2187   2.1537 0001349  92.7430 267.3717 15.08841721 90008,6917.875,95.437,540.673,538.807,0.0
52121.0,STARLINK-3678,PAYLOAD,2023-10-25 21:02:44,15.08845576,0.0001503,53.2169,355.9048,82.4714,277.6449,0.00011454,1.536e-05,0.0,0 STARLINK-3678,1 52121U 22029AK  23298.87690832  .00001536  00000-0  11454-3 0  9996,2 52121  53.2169 355.9048 0001503  82.4714 277.6449 15.08845576 90218,6917.863,95.437,540.768,538.689,0.0
52121.0,STARLINK-3678,PAYLOAD,2023-10-26 11:21:12,15.08849012,0.0001776,53.2179,353.2285,97.5483,262.571,0.00010058,1.313e-05,0.0,0 STARLINK-3678,1 52121U 22029AK  23299.47306543  .00001313  00000-0  10058-3 0  9998,2 52121  53.2179 353.2285 0001776  97.5483 262.5710 15.08849012 90308,6917.853,95.437,540.946,538.489,0.0
52121.0,STARLINK-3678,PAYLOAD,2023-10-26 20:53:31,15.08847058,0.0001454,53.2176,351.4482,86.223,273.8928,9.6312e-05,1.245e-05,0.0,0 STARLINK-3678,1 52121U 22029AK  23299.87050557  .00001245  00000-0  96312-4 0  9995,2 52121  53.2176 351.4482 0001454  86.2230 273.8928 15.08847058 90362,6917.859,95.437,540.73,538.718,0.0
52121.0,STARLINK-3678,PAYLOAD,2023-10-27 12:47:22,15.08850254,0.0001633,53.2169,348.4734,88.9661,271.1519,0.00011512,1.545e-05,0.0,0 STARLINK-3678,1 52121U 22029AK  23300.53290259  .00001545  00000-0  11512-3 0  9997,2 52121  53.2169 348.4734 0001633  88.9661 271.1519 15.08850254 90466,6917.849,95.437,540.844,538.584,0.0
52121.0,STARLINK-3678,PAYLOAD,2023-10-27 20:44:19,15.08835672,0.0001788,53.2181,346.9835,88.3222,271.7975,-6.4745e-05,-1.318e-05,0.0,0 STARLINK-3678,1 52121U 22029AK  23300.86411077 -.00001318  00000-0 -64745-4 0  9993,2 52121  53.2181 346.9835 0001788  88.3222 271.7975 15.08835672 90518,6917.894,95.438,540.996,538.522,0.0
52121.0,STARLINK-3678,PAYLOAD,2023-10-28 09:27:24,15.08834166,0.0001809,53.2169,344.6067,87.7892,272.3307,-1.5908e-05,-5.41e-06,0.0,0 STARLINK-3678,1 52121U 22029AK  23301.39403444 -.00000541  00000-0 -15908-4 0  9995,2 52121  53.2169 344.6067 0001809  87.7892 272.3307 15.08834166 90597,6917.898,95.438,541.015,538.512,0.0
52121.0,STARLINK-3678,PAYLOAD,2023-10-29 09:18:11,15.08855688,0.0001815,53.217,340.147,87.7658,272.3542,0.00047322,7.254e-05,0.0,0 STARLINK-3678,1 52121U 22029AK  23302.38762770  .00007254  00000-0  47322-3 0  9995,2 52121  53.2170 340.1470 0001815  87.7658 272.3542 15.08855688 90745,6917.832,95.437,540.953,538.442,0.0
52121.0,STARLINK-3678,PAYLOAD,2023-10-30 02:47:25,15.08847506,0.0001653,53.2172,336.8756,96.8452,263.2728,0.00031313,4.7e-05,0.0,0 STARLINK-3678,1 52121U 22029AK  23303.11627174  .00004700  00000-0  31313-3 0  9991,2 52121  53.2172 336.8756 0001653  96.8452 263.2728 15.08847506 90856,6917.857,95.437,540.866,538.579,0.0
52121.0,STARLINK-3678,PAYLOAD,2023-10-30 18:41:17,15.08831927,0.0001751,53.2168,333.9033,93.6191,266.5001,0.00026218,3.886e-05,0.0,0 STARLINK-3678,1 52121U 22029AK  23303.77867656  .00003886  00000-0  26218-3 0  9996,2 52121  53.2168 333.9033 0001751  93.6191 266.5001 15.08831927 90952,6917.905,95.438,540.981,538.559,0.0
52121.0,STARLINK-3678,PAYLOAD,2023-10-31 08:59:46,15.08835132,0.0001841,53.2176,331.2294,94.5544,265.5659,5.2929e-05,5.54e-06,0.0,0 STARLINK-3678,1 52121U 22029AK  23304.37484004  .00000554  00000-0  52929-4 0  9993,2 52121  53.2176 331.2294 0001841  94.5544 265.5659 15.08835132 91044,6917.895,95.438,541.034,538.487,0.0
52121.0,STARLINK-3678,PAYLOAD,2023-10-31 18:32:05,15.08835637,0.0001926,53.2181,329.4453,94.7437,265.3776,9.8897e-05,1.286e-05,0.0,0 STARLINK-3678,1 52121U 22029AK  23304.77228126  .00001286  00000-0  98897-4 0  9995,2 52121  53.2181 329.4453 0001926  94.7437 265.3776 15.08835637 91108,6917.894,95.438,541.091,538.426,0.0
52121.0,STARLINK-3678,PAYLOAD,2023-11-01 08:50:33,15.0884944,0.0001885,53.2178,326.7684,96.6003,263.5203,0.00044545,6.81e-05,0.0,0 STARLINK-3678,1 52121U 22029AK  23305.36843921  .00006810  00000-0  44545-3 0  9995,2 52121  53.2178 326.7684 0001885  96.6003 263.5203 15.08849440 91195,6917.852,95.437,541.021,538.413,0.0
52121.0,STARLINK-3678,PAYLOAD,2023-11-01 18:22:51,15.08844311,0.0001819,53.2174,324.9823,94.4685,265.6515,0.00023072,3.386e-05,0.0,0 STARLINK-3678,1 52121U 22029AK  23305.76587961  .00003386  00000-0  23072-3 0  9995,2 52121  53.2174 324.9823 0001819  94.4685 265.6515 15.08844311 91253,6917.867,95.437,540.991,538.474,0.0
52121.0,STARLINK-3678,PAYLOAD,2023-11-02 10:16:43,15.08850345,0.0001963,53.2172,322.007,88.1286,271.9931,0.00025291,3.74e-05,0.0,0 STARLINK-3678,1 52121U 22029AK  23306.42827726  .00003740  00000-0  25291-3 0  9994,2 52121  53.2172 322.0070 0001963  88.1286 271.9931 15.08850345 91358,6917.849,95.437,541.072,538.356,0.0
52121.0,STARLINK-3678,PAYLOAD,2023-11-02 18:13:38,15.08845127,0.0002137,53.2167,320.5218,88.7779,271.3458,0.00013909,1.926e-05,0.0,0 STARLINK-3678,1 52121U 22029AK  23306.75947895  .00001926  00000-0  13909-3 0  9997,2 52121  53.2167 320.5218 0002137  88.7779 271.3458 15.08845127 91402,6917.865,95.437,541.208,538.251,0.0
52121.0,STARLINK-3678,PAYLOAD,2023-11-03 00:35:11,15.08845165,0.0002381,53.2169,319.333,88.5827,271.5438,0.00015714,2.214e-05,0.0,0 STARLINK-3678,1 52121U 22029AK  23307.02443975  .00002214  00000-0  15714-3 0  9995,2 52121  53.2169 319.3330 0002381  88.5827 271.5438 15.08845165 91444,6917.865,95.437,541.377,538.082,0.0
